COSMOS 2507 (RODNIK-S *)
1 40920U 15050A   26166.21986785 -.00000007  00000+0 -12294-3 0  9992
2 40920  82.4930  80.8951 0010296   1.0517 359.0583 12.42926485486617
COSMOS 2508 (RODNIK-S *)
1 40921U 15050B   26166.25536604  .00000004  00000+0 -39360-4 0  9998
2 40921  82.4883  79.3789 0015260  30.8716 329.3258 12.42913920486602
COSMOS 2509 (RODNIK-S *)
1 40922U 15050C   26166.19515950  .00000031  00000+0  15486-3 0  9994
2 40922  82.4890  79.5184 0015763  46.9699 313.2698 12.42883482486630
LINGQIAO VIDEO A        
1 40959U 15057B   26166.26199907  .00000324  00000+0  52366-4 0  9993
2 40959  97.6613 161.1586 0015216 277.4323  82.5159 14.77389724575124
LINGQIAO VIDEO B        
1 40960U 15057C   26166.30653245  .00000978  00000+0  14367-3 0  9993
2 40960  97.6579 162.3650 0015324 277.2239  82.7230 14.77499073575172
JILIN-1                 
1 40961U 15057D   26166.25322310  .00000703  00000+0  10370-3 0  9990
2 40961  97.6507 165.7159 0015309 269.9275  90.0183 14.78157492575329
FOX-1A (AO-85)          
1 40967U 15058D   26166.07201661  .00002230  00000+0  20683-3 0  9997
2 40967  64.7762 285.5569 0130328  57.4109 303.9507 14.90961275113256
SINOD-D 1               
1 40968U 15058E   26165.60471961  .00003177  00000+0  25974-3 0  9997
2 40968  64.7761 266.9995 0118880  54.1051 307.1029 14.95891927116272
ELEKTRO-L 2             
1 41105U 15074A   26165.97095833 -.00000118  00000+0  00000+0 0  9991
2 41105   6.6873  70.5494 0000874 244.3322 283.4193  1.00270489 38485
DAMPE                   
1 41173U 15078A   26166.27273310  .00001527  00000+0  53841-4 0  9992
2 41173  97.4552 171.7303 0013831  83.1231 277.1583 15.30782160584256
ORBCOMM FM110           
1 41182U 15081D   26165.98085328  .00000603  00000+0  16368-3 0  9999
2 41182  47.0033  11.8752 0002568  62.5466 297.5681 14.58877578557307
ORBCOMM FM112           
1 41184U 15081F   26166.01970502  .00000537  00000+0  14972-3 0  9998
2 41184  46.9994 280.4970 0003605 208.7435 151.3253 14.58901548558636
ORBCOMM FM113           
1 41185U 15081G   26165.58533963  .00000343  00000+0  10887-3 0  9992
2 41185  47.0013 282.9257 0002139 214.6325 145.4422 14.58856169558552
ORBCOMM FM108           
1 41187U 15081J   26165.54775661  .00000303  00000+0  10032-3 0  9991
2 41187  47.0035 194.6770 0002809 212.6751 147.3961 14.58867428559697
ORBCOMM FM117           
1 41188U 15081K   26165.78720742  .00000279  00000+0  95337-4 0  9992
2 41188  46.9995 192.1789 0003366 215.0215 145.0450 14.58863849559775
ORBCOMM FM116           
1 41189U 15081L   26166.04162955  .00000560  00000+0  15455-3 0  9994
2 41189  47.0026 280.7669 0000652  46.7508 313.3432 14.58880501558620
HORYU-4                 
1 41340U 16012D   26166.18510468  .00380379  50901-4  95954-3 0  9990
2 41340  30.9848  93.7180 0004979 258.8543 101.1559 15.94345425570497
ZIYUAN 3-02 (ZY 3-02)   
1 41556U 16033A   26166.28242794  .00004680  00000+0  21098-3 0  9993
2 41556  97.3840 242.0936 0011226 297.3454  62.6639 15.21465286557690
CARTOSAT-2C             
1 41599U 16040A   26166.28212660  .00004418  00000+0  21224-3 0  9997
2 41599  97.4490 226.2862 0010465 137.0248 223.1806 15.19306742553421
LAPAN-A3                
1 41603U 16040E   26166.23306535  .00003009  00000+0  96307-4 0  9993
2 41603  97.1485 162.4430 0011127  32.3394 327.8529 15.33093140554511
GAOFEN-3                
1 41727U 16049A   26166.28014749  .00000090  00000+0  40451-4 0  9993
2 41727  98.4006 174.0947 0001343  99.6031 260.5311 14.42215631518372
CAS-2T & KS-1Q          
1 41847U 16066G   26166.16278910  .00001557  00000+0  22513-3 0  9991
2 41847  98.3821 241.9223 0342730 135.6008 227.3214 14.44688208504502
YUNHAI-1 01             
1 41857U 16068A   26166.28075029  .00000379  00000+0  15557-3 0  9994
2 41857  98.5827 177.3054 0006246  48.0849 312.0866 14.32704854501554
RESOURCESAT-2A          
1 41877U 16074A   26166.24086192  .00000155  00000+0  90923-4 0  9995
2 41877  98.7533 239.7608 0003335  87.7148 272.4411 14.21616288494027
