OBJECT_NAME,OBJECT_ID,EPOCH,MEAN_MOTION,ECCENTRICITY,INCLINATION,RA_OF_ASC_NODE,ARG_OF_PERICENTER,MEAN_ANOMALY,EPHEMERIS_TYPE,CLASSIFICATION_TYPE,NORAD_CAT_ID,ELEMENT_SET_NO,REV_AT_EPOCH,BSTAR,MEAN_MOTION_DOT,MEAN_MOTION_DDOT
COSMOS 2507 (RODNIK-S 13),2015-050A,2026-06-15T05:16:36.582240,12.42926485,.00102967,82.4930,80.8951,1.0517,359.0583,0,U,40920,999,48661,-.12294153E-3,-.7E-7,0
COSMOS 2508 (RODNIK-S 14),2015-050B,2026-06-15T06:07:43.625856,12.42913920,.00152604,82.4883,79.3789,30.8716,329.3258,0,U,40921,999,48660,-.39359954E-4,.4E-7,0
COSMOS 2509 (RODNIK-S 15),2015-050C,2026-06-15T04:41:01.780800,12.42883482,.00157637,82.4890,79.5184,46.9699,313.2698,0,U,40922,999,48663,.15486244E-3,.31E-6,0
LINGQIAO VIDEO A,2015-057B,2026-06-15T06:17:16.719648,14.77389724,.00152164,97.6613,161.1586,277.4323,82.5159,0,U,40959,999,57512,.52365582E-4,.324E-5,0
LINGQIAO VIDEO B,2015-057C,2026-06-15T07:21:24.403680,14.77499073,.00153241,97.6579,162.3650,277.2239,82.7230,0,U,40960,999,57517,.14367327E-3,.978E-5,0
JILIN-1,2015-057D,2026-06-15T06:04:38.475840,14.78157492,.00153099,97.6507,165.7159,269.9275,90.0183,0,U,40961,999,57532,.10369752E-3,.703E-5,0
FOX-1A (AO-85),2015-058D,2026-06-15T01:43:42.235104,14.90961275,.01303285,64.7762,285.5569,57.4109,303.9507,0,U,40967,999,11325,.20682944E-3,.223E-4,0
SINOD-D 1,2015-058E,2026-06-14T14:30:47.774304,14.95891927,.01188804,64.7761,266.9995,54.1051,307.1029,0,U,40968,999,11627,.25973809E-3,.3177E-4,0
ELEKTRO-L 2,2015-074A,2026-06-14T23:18:10.799712,1.00270489,.00008741,6.6873,70.5494,244.3322,283.4193,0,U,41105,999,3848,0,-.118E-5,0
DAMPE,2015-078A,2026-06-15T06:32:44.139840,15.30782160,.00138316,97.4552,171.7303,83.1231,277.1583,0,U,41173,999,58425,.53840834E-4,.1527E-4,0
ORBCOMM FM110,2015-081D,2026-06-14T23:32:25.723392,14.58877578,.0002568,47.0033,11.8752,62.5466,297.5681,0,U,41182,999,55730,.16367798E-3,.603E-5,0
ORBCOMM FM112,2015-081F,2026-06-15T00:28:22.513728,14.58901548,.00036057,46.9994,280.4970,208.7435,151.3253,0,U,41184,999,55863,.1497221E-3,.537E-5,0
ORBCOMM FM113,2015-081G,2026-06-14T14:02:53.344032,14.58856169,.0002139,47.0013,282.9257,214.6325,145.4422,0,U,41185,999,55855,.10887E-3,.343E-5,0
ORBCOMM FM108,2015-081J,2026-06-14T13:08:46.171104,14.58867428,.0002809,47.0035,194.6770,212.6751,147.3961,0,U,41187,999,55969,.10032E-3,.303E-5,0
ORBCOMM FM117,2015-081K,2026-06-14T18:53:34.721088,14.58863849,.00033664,46.9995,192.1789,215.0215,145.0450,0,U,41188,999,55977,.95336804E-4,.279E-5,0
ORBCOMM FM116,2015-081L,2026-06-15T00:59:56.793120,14.58880501,.00006525,47.0026,280.7669,46.7508,313.3432,0,U,41189,999,55862,.15455329E-3,.56E-5,0
HORYU-4,2016-012D,2026-06-15T04:26:33.044352,15.94345425,.00049791,30.9848,93.7180,258.8543,101.1559,0,U,41340,999,57049,.95954173E-3,.380379E-2,.50900862E-4
ZIYUAN 3-02 (ZY 3-02),2016-033A,2026-06-15T06:46:41.774016,15.21465286,.00112269,97.3840,242.0936,297.3454,62.6639,0,U,41556,999,55769,.21098371E-3,.468E-4,0
CARTOSAT-2C,2016-040A,2026-06-15T06:46:15.738240,15.19306742,.00104656,97.4490,226.2862,137.0248,223.1806,0,U,41599,999,55342,.21224234E-3,.4418E-4,0
LAPAN-A3,2016-040E,2026-06-15T05:35:36.846240,15.33093140,.00111275,97.1485,162.4430,32.3394,327.8529,0,U,41603,999,55451,.96306739E-4,.3009E-4,0
GAOFEN-3,2016-049A,2026-06-15T06:43:24.743136,14.42215631,.00013434,98.4006,174.0947,99.6031,260.5311,0,U,41727,999,51837,.40451334E-4,.9E-6,0
CAS-2T & KS-1Q,2016-066G,2026-06-15T03:54:24.978240,14.44688208,.03427308,98.3821,241.9223,135.6008,227.3214,0,U,41847,999,50450,.22512618E-3,.1557E-4,0
YUNHAI-1 01,2016-068A,2026-06-15T06:44:16.825056,14.32704854,.00062464,98.5827,177.3054,48.0849,312.0866,0,U,41857,999,50155,.15557127E-3,.379E-5,0
RESOURCESAT-2A,2016-074A,2026-06-15T05:46:50.469888,14.21616288,.00033351,98.7533,239.7608,87.7148,272.4411,0,U,41877,999,49402,.90922855E-4,.155E-5,0
